OBJECT_NAME,OBJECT_ID,EPOCH,MEAN_MOTION,ECCENTRICITY,INCLINATION,RA_OF_ASC_NODE,ARG_OF_PERICENTER,MEAN_ANOMALY,EPHEMERIS_TYPE,CLASSIFICATION_TYPE,NORAD_CAT_ID,ELEMENT_SET_NO,REV_AT_EPOCH,BSTAR,MEAN_MOTION_DOT,MEAN_MOTION_DDOT
KUZGTU 1 (RS47S),2023-091AV,2026-06-06T13:38:02.534496,15.29615473,.00122813,97.5063,221.9418,130.6657,229.5653,0,U,57217,999,16275,.53923971E-3,.15447E-3,0
SONATE-2,2024-043Q,2026-06-06T09:57:00.305568,15.57911026,.00065721,97.5530,307.1574,232.7926,127.2730,0,U,59112,999,12621,.6748462E-3,.50553E-3,0
MESAT1,2024-125G,2026-06-06T12:57:47.315808,15.62057076,.00086197,97.2305,14.7874,246.6799,113.3553,0,U,60209,999,10790,.73306917E-3,.64455E-3,0
OOV-CUBE (TUBSAT-30),2024-128F,2026-06-06T13:00:42.623136,15.02727006,.00459689,61.9952,262.6903,131.3951,229.1106,0,U,60240,999,10451,.2349135E-3,.3011E-4,0
COLIBRI-S (RS67S),2024-199M,2026-06-06T14:04:33.973248,15.47284035,.00068815,97.3005,31.3469,328.7162,31.3678,0,U,61746,999,13577,.54568089E-3,.27811E-3,0
HORS 3 (RS81S),2024-199U,2026-06-06T14:20:35.258784,15.54239328,.0004643,97.2989,33.2325,338.3216,21.7841,0,U,61753,999,13591,.6936585E-3,.4534E-3,0
HORS 4 (RS82S),2024-199V,2026-06-06T14:08:36.580992,15.58694625,.00033671,97.2936,34.3587,328.7687,31.3369,0,U,61754,999,13599,.71020038E-3,.54786E-3,0
ARCTICSAT 1 (RS74S),2024-199AD,2026-06-05T01:02:22.230240,16.02262718,.00061877,97.2851,39.2907,198.3612,161.7446,0,U,61762,999,13617,.12270297E-2,.70668E-2,.23827113E-3
SIT-2086,2024-199AF,2026-06-06T11:57:53.941536,15.52340478,.00046994,97.2945,33.6452,311.0744,49.0103,0,U,61764,999,13277,.75945543E-3,.46369E-3,0
HYPERVIEW 1G (RS66S),2024-199AP,2026-06-05T22:33:13.081536,15.72925574,.000208,97.2887,36.1139,306.6952,53.4120,0,U,61772,999,13290,.11404914E-2,.157165E-2,0
ALTAIR (RS65S),2024-199AW,2026-06-06T13:33:04.448448,15.36811498,.00122386,97.3039,26.9864,352.9135,7.1934,0,U,61779,999,13548,.41777956E-3,.14997E-3,0
ASRTU-1 (AO-123),2024-199AY,2026-06-06T14:36:18.173952,15.35523058,.00134395,97.3011,26.3750,354.6199,5.4899,0,U,61781,999,13230,.28702886E-3,.9859E-4,0
SAMSAT-IONOSPHERE (RS75S),2024-199BB,2026-06-06T14:02:03.580224,15.56698372,.00064466,97.2958,33.2288,330.8893,29.2002,0,U,61784,999,13591,.74659735E-3,.53491E-3,0
RTU MIREA 1 (RS51S),2024-199BC,2026-06-06T12:05:14.939232,15.59920866,.00059606,97.2947,33.9243,325.9643,34.1231,0,U,61785,999,13280,.87120432E-3,.70591E-3,0
TEVEL2-4,2025-052D,2026-06-05T23:10:16.621824,15.34208415,.00042844,97.3920,53.3411,125.1509,235.0135,0,U,63213,999,6839,.78941234E-3,.26125E-3,0
TEVEL2-5,2025-052E,2026-06-06T10:35:31.226496,15.34062158,.00042956,97.3910,53.7683,125.4892,234.6752,0,U,63214,999,6846,.73468546E-3,.2419E-3,0
TEVEL2-6,2025-052F,2026-06-06T10:52:54.721632,15.34024635,.00043765,97.3913,53.7648,125.1583,235.0071,0,U,63215,999,6846,.74778507E-3,.24595E-3,0
TEVEL2-1,2025-052H,2026-06-05T10:25:58.838592,15.33457579,.00040057,97.3883,52.3839,136.2880,223.8680,0,U,63217,999,6829,.52119055E-3,.16797E-3,0
TEVEL2-3,2025-052J,2026-06-05T22:50:33.493920,15.33537694,.00042248,97.3885,52.9211,137.0459,223.1114,0,U,63218,999,6837,.78363705E-3,.25388E-3,0
TEVEL2-2,2025-052K,2026-06-05T22:58:14.499264,15.33493507,.00040281,97.3886,52.9080,136.8186,223.3373,0,U,63219,999,6837,.73355797E-3,.23721E-3,0
TEVEL2-9,2025-052AD,2026-06-06T10:37:39.906336,15.31566572,.0006696,97.3947,52.7914,161.4993,198.6493,0,U,63237,999,6838,.73371453E-3,.22342E-3,0
TEVEL2-7,2025-052AE,2026-06-05T10:28:01.709760,15.31236048,.00066809,97.3949,51.7085,165.6962,194.4470,0,U,63238,999,6822,.49200242E-3,.14789E-3,0
TEVEL2-8,2025-052AF,2026-06-04T15:50:28.971456,15.31195553,.00065639,97.3951,50.9120,168.5625,191.5767,0,U,63239,999,6810,.59749177E-3,.17961E-3,0
INNOSAT 16 (RS92S7),2025-155C,2026-06-06T13:43:28.083648,15.25344242,.00093155,97.4562,124.7349,214.3059,145.7579,0,U,64878,999,7905,.2849047E-3,.7119E-4,0
GEOSCAN 6 (RS92S6),2025-155D,2026-06-06T14:05:06.433728,15.29951488,.00069239,97.4555,126.0998,199.1819,160.9162,0,U,64879,999,7914,.45489288E-3,.13131E-3,0
GEOSCAN 1 (RS92S1),2025-155E,2026-06-06T14:14:29.328864,15.30531242,.00068685,97.4552,126.2452,199.0429,161.0556,0,U,64880,999,7915,.47930231E-3,.14092E-3,0
239ALFEROV (RS61S),2025-155F,2026-06-06T13:52:14.523168,15.32655627,.00065141,97.4553,126.7560,195.2914,164.8132,0,U,64881,999,7918,.58416165E-3,.18377E-3,0
GEOSCAN 2 (RS92S2),2025-155Q,2026-06-06T14:08:05.820864,15.30803619,.00067335,97.4551,126.3890,183.4945,176.6250,0,U,64890,999,7916,.47093659E-3,.13961E-3,0
GEOSCAN 5 (RS92S5),2025-155R,2026-06-06T13:39:36.460800,15.32973910,.00051721,97.4545,126.8806,198.3645,161.7412,0,U,64891,999,7919,.55411489E-3,.17597E-3,0
GEOSCAN 4 (RS92S4),2025-155S,2026-06-06T14:52:20.125632,15.33123382,.00052286,97.4549,126.9770,198.9398,161.1651,0,U,64892,999,7920,.56437116E-3,.1801E-3,0
