KUZGTU 1 (RS47S)        
1 57217U 23091AV  26157.56808489  .00015447  00000+0  53924-3 0  9992
2 57217  97.5063 221.9418 0012281 130.6657 229.5653 15.29615473162759
SONATE-2                
1 59112U 24043Q   26157.41458687  .00050553  00000+0  67485-3 0  9995
2 59112  97.5530 307.1574 0006572 232.7926 127.2730 15.57911026126218
MESAT1                  
1 60209U 24125G   26157.54013097  .00064455  00000+0  73307-3 0  9997
2 60209  97.2305  14.7874 0008619 246.6799 113.3553 15.62057076107900
OOV-CUBE (TUBSAT-30)    
1 60240U 24128F   26157.54215999  .00003011  00000+0  23491-3 0  9990
2 60240  61.9952 262.6903 0045968 131.3951 229.1106 15.02727006104511
COLIBRI-S (RS67S)       
1 61746U 24199M   26157.58650432  .00027811  00000+0  54568-3 0  9992
2 61746  97.3005  31.3469 0006881 328.7162  31.3678 15.47284035135778
HORS 3 (RS81S)          
1 61753U 24199U   26157.59763031  .00045340  00000+0  69366-3 0  9990
2 61753  97.2989  33.2325 0004643 338.3216  21.7841 15.54239328135913
HORS 4 (RS82S)          
1 61754U 24199V   26157.58931228  .00054786  00000+0  71020-3 0  9999
2 61754  97.2936  34.3587 0003367 328.7687  31.3369 15.58694625135994
ARCTICSAT 1 (RS74S)     
1 61762U 24199AD  26156.04331285  .00706680  23827-3  12270-2 0  9999
2 61762  97.2851  39.2907 0006187 198.3612 161.7446 16.02262718136170
SIT-2086                
1 61764U 24199AF  26157.49854099  .00046369  00000+0  75946-3 0  9999
2 61764  97.2945  33.6452 0004699 311.0744  49.0103 15.52340478132779
HYPERVIEW 1G (RS66S)    
1 61772U 24199AP  26156.93973474  .00157165  00000+0  11405-2 0  9991
2 61772  97.2887  36.1139 0002080 306.6952  53.4120 15.72925574132907
ALTAIR (RS65S)          
1 61779U 24199AW  26157.56463482  .00014997  00000+0  41778-3 0  9993
2 61779  97.3039  26.9864 0012238 352.9135   7.1934 15.36811498135483
ASRTU-1 (AO-123)        
1 61781U 24199AY  26157.60854368  .00009859  00000+0  28703-3 0  9992
2 61781  97.3011  26.3750 0013439 354.6199   5.4899 15.35523058132307
SAMSAT-IONOSPHERE (RS7*)
1 61784U 24199BB  26157.58476366  .00053491  00000+0  74660-3 0  9994
2 61784  97.2958  33.2288 0006446 330.8893  29.2002 15.56698372135914
RTU MIREA 1 (RS51S)     
1 61785U 24199BC  26157.50364513  .00070591  00000+0  87120-3 0  9992
2 61785  97.2947  33.9243 0005960 325.9643  34.1231 15.59920866132802
TEVEL2-4                
1 63213U 25052D   26156.96547016  .00026125  00000+0  78941-3 0  9994
2 63213  97.3920  53.3411 0004284 125.1509 235.0135 15.34208415 68393
TEVEL2-5                
1 63214U 25052E   26157.44133364  .00024190  00000+0  73469-3 0  9996
2 63214  97.3910  53.7683 0004295 125.4892 234.6752 15.34062158 68468
TEVEL2-6                
1 63215U 25052F   26157.45341113  .00024595  00000+0  74779-3 0  9995
2 63215  97.3913  53.7648 0004376 125.1583 235.0071 15.34024635 68464
TEVEL2-1                
1 63217U 25052H   26156.43470878  .00016797  00000+0  52119-3 0  9994
2 63217  97.3883  52.3839 0004005 136.2880 223.8680 15.33457579 68299
TEVEL2-3                
1 63218U 25052J   26156.95177655  .00025388  00000+0  78364-3 0  9995
2 63218  97.3885  52.9211 0004224 137.0459 223.1114 15.33537694 68377
TEVEL2-2                
1 63219U 25052K   26156.95711226  .00023721  00000+0  73356-3 0  9999
2 63219  97.3886  52.9080 0004028 136.8186 223.3373 15.33493507 68372
TEVEL2-9                
1 63237U 25052AD  26157.44282299  .00022342  00000+0  73371-3 0  9992
2 63237  97.3947  52.7914 0006696 161.4993 198.6493 15.31566572 68386
TEVEL2-7                
1 63238U 25052AE  26156.43613090  .00014789  00000+0  49200-3 0  9998
2 63238  97.3949  51.7085 0006680 165.6962 194.4470 15.31236048 68226
TEVEL2-8                
1 63239U 25052AF  26155.66005754  .00017961  00000+0  59749-3 0  9999
2 63239  97.3951  50.9120 0006563 168.5625 191.5767 15.31195553 68108
INNOSAT 16 (RS92S7)     
1 64878U 25155C   26157.57185282  .00007119  00000+0  28490-3 0  9993
2 64878  97.4562 124.7349 0009315 214.3059 145.7579 15.25344242 79051
GEOSCAN 6 (RS92S6)      
1 64879U 25155D   26157.58688002  .00013131  00000+0  45489-3 0  9991
2 64879  97.4555 126.0998 0006923 199.1819 160.9162 15.29951488 79142
GEOSCAN 1 (RS92S1)      
1 64880U 25155E   26157.59339501  .00014092  00000+0  47930-3 0  9991
2 64880  97.4552 126.2452 0006868 199.0429 161.0556 15.30531242 79156
239ALFEROV (RS61S)      
1 64881U 25155F   26157.57794587  .00018377  00000+0  58416-3 0  9990
2 64881  97.4553 126.7560 0006514 195.2914 164.8132 15.32655627 79188
GEOSCAN 2 (RS92S2)      
1 64890U 25155Q   26157.58895626  .00013961  00000+0  47094-3 0  9991
2 64890  97.4551 126.3890 0006733 183.4945 176.6250 15.30803619 79168
GEOSCAN 5 (RS92S5)      
1 64891U 25155R   26157.56917200  .00017597  00000+0  55411-3 0  9994
2 64891  97.4545 126.8806 0005172 198.3645 161.7412 15.32973910 79194
GEOSCAN 4 (RS92S4)      
1 64892U 25155S   26157.61967738  .00018010  00000+0  56437-3 0  9992
2 64892  97.4549 126.9770 0005228 198.9398 161.1651 15.33123382 79205
